#aV2013  1  4  0  0  0.00000000     288 DD+AD WGS84 FIT  NGA
## 1721 432000.00000000   300.00000000 56296 0.0000000000000
+   31     1  2  3  4  5  6  7  8  9 10 11 12 13 14 15 16 17
+         18 19 20 21 22 23 24 25 26 28 29 30 31 32  0  0  0
+          0  0  0  0  0  0  0  0  0  0  0  0  0  0  0  0  0
+          0  0  0  0  0  0  0  0  0  0  0  0  0  0  0  0  0
+          0  0  0  0  0  0  0  0  0  0  0  0  0  0  0  0  0
++         2  2  2  2  2  2  2  2  2  2  2  2  2  2  2  2  2
++         2  2  2  2  2  2  2  2  2  2  2  2  2  2  2  0  0
++         0  0  0  0  0  0  0  0  0  0  0  0  0  0  0  0  0
++         0  0  0  0  0  0  0  0  0  0  0  0  0  0  0  0  0
++         0  0  0  0  0  0  0  0  0  0  0  0  0  0  0  0  0
%c cc cc ccc ccc cccc cccc cccc cccc ccccc ccccc ccccc ccccc
%c cc cc ccc ccc cccc cccc cccc cccc ccccc ccccc ccccc ccccc
%f  0.0000000  0.000000000  0.00000000000  0.000000000000000
%f  0.0000000  0.000000000  0.00000000000  0.000000000000000
%i    0    0    0    0      0      0      0      0         0
%i    0    0    0    0      0      0      0      0         0
/*      NGA, ST. LOUIS,MO.                                  
/*   EPHEMERIS COMPUTED FROM  1 DAYS OF DATA
/*   EPOCHA SMOOTHER  
/* CCCCCCCCCCCCCCCCCCCCCCCCCCCCCCCCCCCCCCCCCCCCCCCCCCCCCCCCC
*  2013  1  4  2 25  0.00000000                                                 
P  1 -21879.386136 -14280.100778  -4993.875112    291.284800                    
V  1   6857.113493    253.105260 -30847.221755      0.022456                    
P  2   3975.664871  17680.829615  19739.627767    413.632472                    
V  2 -22902.637509  -9145.930234  12400.654645      0.013002                    
P  3   1180.887150 -19525.219493 -18367.196920    150.520285                    
V  3  17895.016879 -13766.615898  16467.076430      0.051005                    
P  4 -12323.603309  10912.326299  20615.108280     94.681966                    
V  4 -23939.052518 -12178.353257  -7469.900142      0.111389                    
P  5   3290.259243  26227.763756  -1632.610757   -376.630986                    
V  5  -3126.921860   2306.253237  31500.541127     -0.021199                    
P  6   8401.081374 -20204.658157 -14721.203222    401.032280                    
V  6  16715.538894  -9550.222154  22832.744085     -0.135004                    
P  7 -24435.206555  -5023.076155  -9481.504917    164.839674                    
V  7  -9877.094926  -7063.207684  28789.472028      0.044182                    
P  8 -18910.719343   2479.898245 -18637.117650      3.819504                    
V  8 -19773.825369 -12857.473516  17686.744007      0.002459                    
P  9  12924.583588  17557.704055 -15659.694291    211.227165                    
V  9 -17681.889029  -6799.177637 -23073.900338      0.026646                    
P 10  -9419.985899  19642.713143  14621.348702    -64.827236                    
V 10  -3954.202573 -19068.104299  23043.523241     -0.015278                    
P 11 -18996.318419 -13799.577418 -13103.665658   -339.993837                    
V 11  16446.245082  -1041.114845 -23229.135147     -0.039062                    
P 12  11500.600085  18016.847523  15874.883330    110.461019                    
V 12   -367.470092  20109.460144 -22338.958755      0.020564                    
P 13 -22555.141611   1946.319081  13842.406664    155.170711                    
V 13  14737.276644  -9975.896196  25058.678129     -0.028860                    
P 14  21840.136559 -14811.249147   2437.586773    219.145009                    
V 14   3697.321534    628.113366 -31989.440057      0.004678                    
P 15   9301.426288  12536.115068 -21505.886417   -104.108145                    
V 15 -22170.127515  15992.393850    -19.363010     -0.011176                    
P 16  -1254.495810 -26342.069625   -642.529234   -251.482409                    
V 16   2357.994438   -889.250479  32448.785111     -0.003355                    
P 17 -20697.383282  16070.145678   3631.402339     63.078862                    
V 17  -5240.427069    -57.312777 -31556.488070     -0.038112                    
P 18  15459.385874  -3418.658433 -20922.515440    232.653267                    
V 18   2584.488648  27501.319652  -2886.244221      0.018603                    
P 19  -5612.433982 -14243.817359 -21757.057112   -336.777981                    
V 19  24147.614288 -13098.350569   2753.751926     -0.033056                    
P 20 -13804.196250 -16471.713197  15479.363494     78.754007                    
V 20     34.944684 -20206.106101 -21157.207549      0.013517                    
P 21  23775.669449   1705.854558 -11738.018901   -272.427317                    
V 21  12818.622754   9316.876032  25598.563425     -0.023185                    
P 22  11279.283820 -17163.405321 -16589.090056    154.903296                    
V 22   4104.049871  21336.122493 -19203.393692      0.007394                    
P 23 -16233.465894  -6261.147476  20230.961078    127.413794                    
V 23  20673.250128 -14890.379547  11638.733913     -0.037869                    
P 24  19742.167485  15692.759895  -8367.770821      1.246240                    
V 24 -10739.670792  -2109.820390 -29266.824074     -0.006023                    
P 25  15014.055809   5451.549951  21197.691071     60.561755                    
V 25   1726.340756  26903.673363  -8051.987608      0.024567                    
P 26  -4007.186633  17598.001742 -19990.308170   -151.157281                    
V 26 -21497.084406  10915.979942  14722.573700      0.136279                    
P 28 -12237.289461  13317.417565 -18798.660823    220.186802                    
V 28  -1965.855546 -25083.277956 -16198.150392      0.036059                    
P 29  22029.106837  -1633.424742  14772.930800    394.314541                    
V 29 -14820.446626  11530.138404  23495.110788      0.038750                    
P 30   2884.800712 -24186.216510  10263.485162   -263.066060                    
V 30   4892.244529  12875.079986  27989.897800      0.114412                    
P 31   7617.948575 -12799.517809  22188.434965    295.805236                    
V 31  24702.885553  12407.454847  -1076.532410      0.019579                    
P 32  -7455.755199 -23494.326679  10698.395549   -522.960488                    
V 32   2435.742123 -13180.361168 -27142.012297     -0.034837                    
EOF
